{
  "norad_id": 43234,
  "name": "O3B FM13",
  "history": [
    {
      "epoch": "2026-03-25T16:44:28.678560Z",
      "apogee_km": 8071.620240741752,
      "perigee_km": 8060.158039358056,
      "latitude_deg": 0.019711681853268395,
      "longitude_deg": -74.27678395312353,
      "height_km": 8059.70119078381,
      "semi_major_axis_km": 14444.026140049904,
      "eccentricity": 0.00039678,
      "inclination_deg": 0.047,
      "raan_deg": 335.8508,
      "arg_perigee_deg": 348.6026,
      "mean_anomaly_deg": 35.5167,
      "mean_motion_rev_day": 5.00115556
    },
    {
      "epoch": "2026-04-19T16:24:47.295072Z",
      "apogee_km": 8071.151002658748,
      "perigee_km": 8060.629973036602,
      "latitude_deg": 0.03301521809758529,
      "longitude_deg": -93.98212346562835,
      "height_km": 8059.274314767263,
      "semi_major_axis_km": 14444.027487847676,
      "eccentricity": 0.0003642,
      "inclination_deg": 0.0574,
      "raan_deg": 329.8203,
      "arg_perigee_deg": 15.6501,
      "mean_anomaly_deg": 14.5203,
      "mean_motion_rev_day": 5.00115486
    },
    {
      "epoch": "2026-04-20T06:48:18.955872Z",
      "apogee_km": 8071.109500203303,
      "perigee_km": 8060.67224566232,
      "latitude_deg": 0.032902485021487855,
      "longitude_deg": 49.54487336559624,
      "height_km": 8059.296225227609,
      "semi_major_axis_km": 14444.027872932811,
      "eccentricity": 0.0003613,
      "inclination_deg": 0.0572,
      "raan_deg": 329.7161,
      "arg_perigee_deg": 16.6214,
      "mean_anomaly_deg": 13.6535,
      "mean_motion_rev_day": 5.00115466
    },
    {
      "epoch": "2026-04-21T11:35:22.243776Z",
      "apogee_km": 8071.154344161993,
      "perigee_km": 8060.6284029250555,
      "latitude_deg": 0.03260391755617703,
      "longitude_deg": -23.400890632926238,
      "height_km": 8059.242066647779,
      "semi_major_axis_km": 14444.028373543524,
      "eccentricity": 0.00036437,
      "inclination_deg": 0.0569,
      "raan_deg": 329.512,
      "arg_perigee_deg": 17.3849,
      "mean_anomaly_deg": 13.0936,
      "mean_motion_rev_day": 5.0011544
    },
    {
      "epoch": "2026-04-22T06:46:44.367744Z",
      "apogee_km": 8071.142182152204,
      "perigee_km": 8060.638485475053,
      "latitude_deg": 0.0323288533262905,
      "longitude_deg": 47.96879603535168,
      "height_km": 8059.239957121812,
      "semi_major_axis_km": 14444.027333813629,
      "eccentricity": 0.0003636,
      "inclination_deg": 0.0567,
      "raan_deg": 329.4307,
      "arg_perigee_deg": 18.0551,
      "mean_anomaly_deg": 12.5045,
      "mean_motion_rev_day": 5.00115494
    },
    {
      "epoch": "2026-04-23T06:45:57.095712Z",
      "apogee_km": 8071.126284072529,
      "perigee_km": 8060.654075486645,
      "latitude_deg": 0.03197540101518151,
      "longitude_deg": 47.180727893861295,
      "height_km": 8059.2381696903285,
      "semi_major_axis_km": 14444.027179779587,
      "eccentricity": 0.00036251,
      "inclination_deg": 0.0564,
      "raan_deg": 329.3714,
      "arg_perigee_deg": 19.0003,
      "mean_anomaly_deg": 11.6187,
      "mean_motion_rev_day": 5.00115502
    },
    {
      "epoch": "2026-04-24T11:33:00.362016Z",
      "apogee_km": 8071.124271482428,
      "perigee_km": 8060.655240889547,
      "latitude_deg": 0.03180257391086392,
      "longitude_deg": -25.764960042817027,
      "height_km": 8059.226531113344,
      "semi_major_axis_km": 14444.026756185987,
      "eccentricity": 0.0003624,
      "inclination_deg": 0.056,
      "raan_deg": 329.1846,
      "arg_perigee_deg": 19.8887,
      "mean_anomaly_deg": 10.9172,
      "mean_motion_rev_day": 5.00115524
    },
    {
      "epoch": "2026-04-25T01:56:31.995168Z",
      "apogee_km": 8071.083625909473,
      "perigee_km": 8060.694615681829,
      "latitude_deg": 0.03182370221823063,
      "longitude_deg": 117.76205247119869,
      "height_km": 8059.250234059152,
      "semi_major_axis_km": 14444.026120795652,
      "eccentricity": 0.00035963,
      "inclination_deg": 0.0559,
      "raan_deg": 329.1327,
      "arg_perigee_deg": 20.8365,
      "mean_anomaly_deg": 10.0218,
      "mean_motion_rev_day": 5.00115557
    },
    {
      "epoch": "2026-04-26T01:55:44.770656Z",
      "apogee_km": 8071.06117027331,
      "perigee_km": 8060.717225352008,
      "latitude_deg": 0.031966160296962115,
      "longitude_deg": 116.97378806164694,
      "height_km": 8059.2594951218525,
      "semi_major_axis_km": 14444.026197812658,
      "eccentricity": 0.00035807,
      "inclination_deg": 0.0556,
      "raan_deg": 328.9915,
      "arg_perigee_deg": 21.8257,
      "mean_anomaly_deg": 9.1746,
      "mean_motion_rev_day": 5.00115553
    },
    {
      "epoch": "2026-04-27T06:42:48.105216Z",
      "apogee_km": 8071.029672647625,
      "perigee_km": 8060.748414909666,
      "latitude_deg": 0.03226353529835021,
      "longitude_deg": 44.02773935695121,
      "height_km": 8059.275375089489,
      "semi_major_axis_km": 14444.026043778646,
      "eccentricity": 0.0003559,
      "inclination_deg": 0.0552,
      "raan_deg": 328.8334,
      "arg_perigee_deg": 23.0787,
      "mean_anomaly_deg": 8.0809,
      "mean_motion_rev_day": 5.00115561
    },
    {
      "epoch": "2026-04-27T11:30:38.630592Z",
      "apogee_km": 8071.008892439963,
      "perigee_km": 8060.768078370808,
      "latitude_deg": 0.032325303583927954,
      "longitude_deg": -28.12974571917236,
      "height_km": 8059.292590972865,
      "semi_major_axis_km": 14444.025485405386,
      "eccentricity": 0.0003545,
      "inclination_deg": 0.0552,
      "raan_deg": 328.846,
      "arg_perigee_deg": 23.2464,
      "mean_anomaly_deg": 7.9009,
      "mean_motion_rev_day": 5.0011559
    },
    {
      "epoch": "2026-04-27T11:30:38.631456Z",
      "apogee_km": 8071.008314678943,
      "perigee_km": 8060.7686561318305,
      "latitude_deg": 0.032325303092968036,
      "longitude_deg": -28.12974995720303,
      "height_km": 8059.293163371545,
      "semi_major_axis_km": 14444.025485405386,
      "eccentricity": 0.00035446,
      "inclination_deg": 0.0552,
      "raan_deg": 328.846,
      "arg_perigee_deg": 23.2464,
      "mean_anomaly_deg": 7.9009,
      "mean_motion_rev_day": 5.0011559
    },
    {
      "epoch": "2026-04-30T06:40:26.454144Z",
      "apogee_km": 8070.947226098827,
      "perigee_km": 8060.830052779937,
      "latitude_deg": 0.03307979506628196,
      "longitude_deg": 41.662681572763546,
      "height_km": 8059.3297807060135,
      "semi_major_axis_km": 14444.025639439382,
      "eccentricity": 0.00035022,
      "inclination_deg": 0.0543,
      "raan_deg": 328.4446,
      "arg_perigee_deg": 26.0363,
      "mean_anomaly_deg": 5.5156,
      "mean_motion_rev_day": 5.00115582
    }
  ]
}